NORAD_CAT_ID,OBJECT_NAME,OBJECT_TYPE,EPOCH,MEAN_MOTION,ECCENTRICITY,INCLINATION,RA_OF_ASC_NODE,ARG_OF_PERICENTER,MEAN_ANOMALY,BSTAR,MEAN_MOTION_DOT,MEAN_MOTION_DDOT,TLE_LINE0,TLE_LINE1,TLE_LINE2,SEMIMAJOR_AXIS,PERIOD,APOGEE,PERIGEE,DECAYED
52876.0,STARLINK-4200,PAYLOAD,2023-03-11 20:53:54,15.08846427,0.0001268,53.215,244.4623,88.2332,271.8805,0.00022863,3.353e-05,0.0,0 STARLINK-4200,1 52876U 22062AY  23070.87076505  .00003353  00000-0  22863-3 0  9998,2 52876  53.2150 244.4623 0001268  88.2332 271.8805 15.08846427 40936,6917.861,95.437,540.603,538.849,0.0
52876.0,STARLINK-4200,PAYLOAD,2023-03-12 11:12:22,15.08839366,0.0001332,53.2154,241.7874,78.1558,281.9584,0.00019966,2.891e-05,0.0,0 STARLINK-4200,1 52876U 22062AY  23071.46693026  .00002891  00000-0  19966-3 0  9993,2 52876  53.2154 241.7874 0001332  78.1558 281.9584 15.08839366 41513,6917.882,95.438,540.669,538.826,0.0
52876.0,STARLINK-4200,PAYLOAD,2023-03-12 20:44:41,15.08845666,0.0001496,53.2153,240.0029,82.3119,277.8042,0.00026716,3.967e-05,0.0,0 STARLINK-4200,1 52876U 22062AY  23071.86436837  .00003967  00000-0  26716-3 0  9998,2 52876  53.2153 240.0029 0001496  82.3119 277.8042 15.08845666 41082,6917.863,95.437,540.763,538.693,0.0
52876.0,STARLINK-4200,PAYLOAD,2023-03-13 11:03:09,15.08839169,0.0001207,53.217,237.3221,118.3209,241.7905,0.00018281,2.623e-05,0.0,0 STARLINK-4200,1 52876U 22062AY  23072.46052965  .00002623  00000-0  18281-3 0  9997,2 52876  53.2170 237.3221 0001207 118.3209 241.7905 15.08839169 41173,6917.883,95.438,540.583,538.913,0.0
52876.0,STARLINK-4200,PAYLOAD,2023-03-13 20:35:28,15.08846171,0.0001423,53.2158,235.5388,104.9763,255.1387,0.00018586,2.672e-05,0.0,0 STARLINK-4200,1 52876U 22062AY  23072.85796636  .00002672  00000-0  18586-3 0  9992,2 52876  53.2158 235.5388 0001423 104.9763 255.1387 15.08846171 41724,6917.862,95.437,540.711,538.742,0.0
52876.0,STARLINK-4200,PAYLOAD,2023-03-14 10:53:56,15.08846449,0.0001569,53.2147,232.8628,102.9935,257.1232,0.00017712,2.532e-05,0.0,0 STARLINK-4200,1 52876U 22062AY  23073.45412717  .00002532  00000-0  17712-3 0  9999,2 52876  53.2147 232.8628 0001569 102.9935 257.1232 15.08846449 41324,6917.861,95.437,540.811,538.64,0.0
52876.0,STARLINK-4200,PAYLOAD,2023-03-14 20:26:15,15.08853009,0.0001822,53.2143,231.0778,107.476,252.6431,0.00024347,3.59e-05,0.0,0 STARLINK-4200,1 52876U 22062AY  23073.85156298  .00003590  00000-0  24347-3 0  9999,2 52876  53.2143 231.0778 0001822 107.4760 252.6431 15.08853009 41382,6917.841,95.437,540.966,538.445,0.0
52876.0,STARLINK-4200,PAYLOAD,2023-03-15 10:44:43,15.08845726,0.0002263,53.213,228.4003,111.2126,248.9108,0.0003178,4.774e-05,0.0,0 STARLINK-4200,1 52876U 22062AY  23074.44772441  .00004774  00000-0  31780-3 0  9993,2 52876  53.2130 228.4003 0002263 111.2126 248.9108 15.08845726 41968,6917.863,95.437,541.293,538.162,0.0
52876.0,STARLINK-4200,PAYLOAD,2023-03-15 20:17:01,15.0885434,0.0002403,53.2135,226.6171,112.0806,248.0441,0.00021365,3.115e-05,0.0,0 STARLINK-4200,1 52876U 22062AY  23074.84515762  .00003115  00000-0  21365-3 0  9994,2 52876  53.2135 226.6171 0002403 112.0806 248.0441 15.08854340 41535,6917.837,95.437,541.364,538.039,0.0
52876.0,STARLINK-4200,PAYLOAD,2023-03-16 02:38:34,15.08829064,0.0001795,53.2131,225.4317,99.7119,260.4076,-0.00027302,-4.629e-05,0.0,0 STARLINK-4200,1 52876U 22062AY  23075.11012709 -.00004629  00000-0 -27302-3 0  9998,2 52876  53.2131 225.4317 0001795  99.7119 260.4076 15.08829064 42067,6917.914,95.438,541.021,538.537,0.0
52876.0,STARLINK-4200,PAYLOAD,2023-03-16 10:35:30,15.0882432,0.0001183,53.2168,223.9449,107.6572,252.4549,-0.00046991,-7.755e-05,0.0,0 STARLINK-4200,1 52876U 22062AY  23075.44132650 -.00007755  00000-0 -46991-3 0  9990,2 52876  53.2168 223.9449 0001183 107.6572 252.4549 15.08824320 41626,6917.928,95.439,540.612,538.975,0.0
52876.0,STARLINK-4200,PAYLOAD,2023-03-16 20:07:49,15.08829296,0.0001249,53.2161,222.1598,105.3902,254.7228,-0.00017249,-3.031e-05,0.0,0 STARLINK-4200,1 52876U 22062AY  23075.83877028 -.00003031  00000-0 -17249-3 0  9995,2 52876  53.2161 222.1598 0001249 105.3902 254.7228 15.08829296 41682,6917.913,95.438,540.642,538.914,0.0
52876.0,STARLINK-4200,PAYLOAD,2023-03-17 10:26:18,15.08829067,0.0001357,53.2161,219.4841,109.2578,250.8561,-0.00011318,-2.088e-05,0.0,0 STARLINK-4200,1 52876U 22062AY  23076.43493563 -.00002088  00000-0 -11318-3 0  9992,2 52876  53.2161 219.4841 0001357 109.2578 250.8561 15.08829067 42262,6917.914,95.438,540.718,538.84,0.0
52876.0,STARLINK-4200,PAYLOAD,2023-03-17 18:23:13,15.08839513,0.0001274,53.216,217.9967,111.7733,248.3395,0.00019848,2.872e-05,0.0,0 STARLINK-4200,1 52876U 22062AY  23076.76613359  .00002872  00000-0  19848-3 0  9990,2 52876  53.2160 217.9967 0001274 111.7733 248.3395 15.08839513 42312,6917.882,95.438,540.628,538.866,0.0
52876.0,STARLINK-4200,PAYLOAD,2023-03-18 18:14:00,15.08859843,0.0001334,53.2163,213.5362,103.4555,256.6585,0.00055371,8.54e-05,0.0,0 STARLINK-4200,1 52876U 22062AY  23077.75972798  .00008540  00000-0  55371-3 0  9994,2 52876  53.2163 213.5362 0001334 103.4555 256.6585 15.08859843 42460,6917.82,95.436,540.608,538.762,0.0
52876.0,STARLINK-4200,PAYLOAD,2023-03-19 02:10:57,15.08840577,0.0002032,53.2158,212.0503,86.3861,273.7364,0.00012806,1.751e-05,0.0,0 STARLINK-4200,1 52876U 22062AY  23078.09093769  .00001751  00000-0  12806-3 0  9997,2 52876  53.2158 212.0503 0002032  86.3861 273.7364 15.08840577 42515,6917.879,95.438,541.149,538.338,0.0
52876.0,STARLINK-4200,PAYLOAD,2023-03-19 13:18:38,15.08846771,0.0001551,53.2167,209.9697,80.99,279.1268,0.00016971,2.414e-05,0.0,0 STARLINK-4200,1 52876U 22062AY  23078.55461363  .00002414  00000-0  16971-3 0  9991,2 52876  53.2167 209.9697 0001551  80.9900 279.1268 15.08846771 42091,6917.86,95.437,540.798,538.652,0.0
52876.0,STARLINK-4200,PAYLOAD,2023-03-19 18:04:47,15.08850217,0.0001249,53.2153,209.0763,83.6629,276.4505,0.00020119,2.916e-05,0.0,0 STARLINK-4200,1 52876U 22062AY  23078.75332969  .00002916  00000-0  20119-3 0  9998,2 52876  53.2153 209.0763 0001249  83.6629 276.4505 15.08850217 42121,6917.849,95.437,540.578,538.85,0.0
52876.0,STARLINK-4200,PAYLOAD,2023-03-20 13:09:25,15.0884148,0.0001481,53.217,205.5086,85.2981,274.8181,9.0878e-05,1.159e-05,0.0,0 STARLINK-4200,1 52876U 22062AY  23079.54821297  .00001159  00000-0  90878-4 0  9991,2 52876  53.2170 205.5086 0001481  85.2981 274.8181 15.08841480 42243,6917.876,95.437,540.765,538.716,0.0
52876.0,STARLINK-4200,PAYLOAD,2023-03-20 14:44:48,15.08845265,0.000147,53.2179,205.2114,87.4243,272.6917,8.9727e-05,1.141e-05,0.0,0 STARLINK-4200,1 52876U 22062AY  23079.61445193  .00001141  00000-0  89727-4 0  9998,2 52876  53.2179 205.2114 0001470  87.4243 272.6917 15.08845265 42747,6917.864,95.437,540.746,538.712,0.0
52876.0,STARLINK-4200,PAYLOAD,2023-03-21 13:00:12,15.08849266,0.0001317,53.2169,201.0495,77.6253,282.4886,0.00029199,4.363e-05,0.0,0 STARLINK-4200,1 52876U 22062AY  23080.54181053  .00004363  00000-0  29199-3 0  9999,2 52876  53.2169 201.0495 0001317  77.6253 282.4886 15.08849266 42394,6917.852,95.437,540.628,538.806,0.0
52876.0,STARLINK-4200,PAYLOAD,2023-03-22 12:50:59,15.08838953,0.0001008,53.2162,196.5894,81.4369,278.6737,9.2729e-05,1.188e-05,0.0,0 STARLINK-4200,1 52876U 22062AY  23081.53541321  .00001188  00000-0  92729-4 0  9999,2 52876  53.2162 196.5894 0001008  81.4369 278.6737 15.08838953 43031,6917.884,95.438,540.446,539.051,0.0
52876.0,STARLINK-4200,PAYLOAD,2023-03-22 17:37:08,15.08851635,0.0001158,53.2189,195.697,95.7524,264.36,0.00013969,1.937e-05,0.0,0 STARLINK-4200,1 52876U 22062AY  23081.73412585  .00001937  00000-0  13969-3 0  9990,2 52876  53.2189 195.6970 0001158  95.7524 264.3600 15.08851635 43068,6917.845,95.437,540.511,538.909,0.0
52876.0,STARLINK-4200,PAYLOAD,2023-03-23 12:41:46,15.08839142,0.0001072,53.2168,192.1303,91.4292,268.6823,1.9563e-05,2.4e-07,0.0,0 STARLINK-4200,1 52876U 22062AY  23082.52901313  .00000024  00000-0  19563-4 0  9993,2 52876  53.2168 192.1303 0001072  91.4292 268.6823 15.08839142 43183,6917.883,95.438,540.49,539.006,0.0
52876.0,STARLINK-4200,PAYLOAD,2023-03-24 12:32:31,15.08902516,0.0001527,53.2177,187.669,115.5506,244.5644,0.0015544,0.00024579,0.0,0 STARLINK-4200,1 52876U 22062AY  23083.52258781  .00024579  00000-0  15544-2 0  9992,2 52876  53.2177 187.6690 0001527 115.5506 244.5644 15.08902516 43339,6917.689,95.434,540.611,538.498,0.0
52876.0,STARLINK-4200,PAYLOAD,2023-03-24 15:43:16,15.08913607,0.0001416,53.2181,187.0744,122.7733,237.3396,0.0014516,0.00022936,0.0,0 STARLINK-4200,1 52876U 22062AY  23083.65505666  .00022936  00000-0  14516-2 0  9996,2 52876  53.2181 187.0744 0001416 122.7733 237.3396 15.08913607 42861,6917.655,95.433,540.5,538.541,0.0
52876.0,STARLINK-4200,PAYLOAD,2023-03-24 23:40:13,15.08849272,0.0001832,53.2178,185.5883,97.7558,262.3643,-0.00029409,-4.967e-05,0.0,0 STARLINK-4200,1 52876U 22062AY  23083.98626944 -.00004967  00000-0 -29409-3 0  9999,2 52876  53.2178 185.5883 0001832  97.7558 262.3643 15.08849272 43402,6917.852,95.437,540.984,538.45,0.0
52876.0,STARLINK-4200,PAYLOAD,2023-03-25 12:23:22,15.08730868,0.0001439,53.2167,183.21,90.1623,269.9534,-0.0028996,-0.00046003,0.0,0 STARLINK-4200,1 52876U 22062AY  23084.51622890 -.00046003  00000-0 -28996-2 0  9991,2 52876  53.2167 183.2100 0001439  90.1623 269.9534 15.08730868 43480,6918.214,95.444,541.075,539.083,0.0
52876.0,STARLINK-4200,PAYLOAD,2023-03-25 15:34:09,15.08734812,0.000137,53.2166,182.6148,96.4165,263.6983,-0.0016317,-0.00026088,0.0,0 STARLINK-4200,1 52876U 22062AY  23084.64871797 -.00026088  00000-0 -16317-2 0  9992,2 52876  53.2166 182.6148 0001370  96.4165 263.6983 15.08734812 43503,6918.202,95.444,541.015,539.119,0.0
52876.0,STARLINK-4200,PAYLOAD,2023-03-25 23:31:06,15.08780759,0.0001292,53.2167,181.1287,92.2829,267.8311,0.003876,0.00061839,0.0,0 STARLINK-4200,1 52876U 22062AY  23084.97993915  .00061839  00000-0  38760-2 0  9992,2 52876  53.2167 181.1287 0001292  92.2829 267.8311 15.08780759 43553,6918.061,95.441,540.82,539.033,0.0
